{
    "links": {
        "self": "http://www.neowsapp.com/rest/v1/neo/3595986?api_key=iIulBulltgU6a56xZRHN4H3l9WmuAYTsLGpBGhQ2"
    },
    "id": "3595986",
    "neo_reference_id": "3595986",
    "name": "(2012 BM11)",
    "designation": "2012 BM11",
    "nasa_jpl_url": "http://ssd.jpl.nasa.gov/sbdb.cgi?sstr=3595986",
    "absolute_magnitude_h": 23.1,
    "estimated_diameter": {
        "kilometers": {
            "estimated_diameter_min": 0.063760979,
            "estimated_diameter_max": 0.1425738833
        },
        "meters": {
            "estimated_diameter_min": 63.7609789875,
            "estimated_diameter_max": 142.5738833281
        },
        "miles": {
            "estimated_diameter_min": 0.0396192233,
            "estimated_diameter_max": 0.0885912765
        },
        "feet": {
            "estimated_diameter_min": 209.1895703015,
            "estimated_diameter_max": 467.7620993781
        }
    },
    "is_potentially_hazardous_asteroid": false,
    "close_approach_data": [
        {
            "close_approach_date": "2012-01-14",
            "close_approach_date_full": "2012-Jan-14 12:42",
            "epoch_date_close_approach": 1326544920000,
            "relative_velocity": {
                "kilometers_per_second": "17.0297084673",
                "kilometers_per_hour": "61306.9504821403",
                "miles_per_hour": "38093.7548704166"
            },
            "miss_distance": {
                "astronomical": "0.0904002088",
                "lunar": "35.1656812232",
                "kilometers": "13523678.684035256",
                "miles": "8403224.2715722928"
            },
            "orbiting_body": "Earth"
        }
    ],
    "orbital_data": {
        "orbit_id": "4",
        "orbit_determination_date": "2017-04-06 08:51:22",
        "first_observation_date": "2012-01-19",
        "last_observation_date": "2012-01-20",
        "data_arc_in_days": 1,
        "observations_used": 24,
        "orbit_uncertainty": "9",
        "minimum_orbit_intersection": ".0781381",
        "jupiter_tisserand_invariant": "3.786",
        "epoch_osculation": "2455946.5",
        "eccentricity": ".421231679666466",
        "semi_major_axis": "1.823569393568111",
        "inclination": "29.69649917364082",
        "ascending_node_longitude": "116.3006561036916",
        "orbital_period": "899.4600290785017",
        "perihelion_distance": "1.055424194927057",
        "perihelion_argument": "347.8795217497243",
        "aphelion_distance": "2.591714592209166",
        "perihelion_time": "2455930.035535484114",
        "mean_anomaly": "6.58973943710583",
        "mean_motion": ".4002401311471512",
        "equinox": "J2000",
        "orbit_class": {
            "orbit_class_type": "AMO",
            "orbit_class_description": "Near-Earth asteroid orbits similar to that of 1221 Amor",
            "orbit_class_range": "1.017 AU < q (perihelion) < 1.3 AU"
        }
    },
    "is_sentry_object": false
}